{
  "type": "FeatureCollection",
  "features": [
    {
      "type": "Feature",
      "properties": {
        "norad_id": 24946,
        "name": "IRIDIUM 33",
        "group": "iridium-33-debris",
        "lat": -46.261139625277046,
        "lon": 66.26803907763887,
        "alt_km": 782.3668966962878,
        "timestamp": "2025-12-08T08:59:01.151129+00:00",
        "meta_object_name": "IRIDIUM 33",
        "meta_object_id": "1997-051C",
        "meta_epoch": "2025-12-07T23:09:30.826368",
        "meta_mean_motion": 14.35031792,
        "meta_eccentricity": 0.00065204,
        "meta_inclination": 86.387,
        "meta_ra_of_asc_node": 70.2257,
        "meta_arg_of_pericenter": 218.2008,
        "meta_mean_anomaly": 141.8727,
        "meta_ephemeris_type": 0,
        "meta_classification_type": "U",
        "meta_norad_cat_id": 24946,
        "meta_element_set_no": 999,
        "meta_rev_at_epoch": 47766,
        "meta_bstar": 0.00020031832,
        "meta_mean_motion_dot": 5.9e-06,
        "meta_mean_motion_ddot": 0,
        "tle_line1": "1 24946U 97051C   25341.96494012  .00000590  00000+0  20032-3 0  9990",
        "tle_line2": "2 24946  86.3870  70.2257 0006520 218.2008 141.8727 14.35031792477661"
      },
      "geometry": {
        "type": "Point",
        "coordinates": [
          66.26803907763887,
          -46.261139625277046
        ]
      }
    },
    {
      "type": "Feature",
      "properties": {
        "norad_id": 33773,
        "name": "IRIDIUM 33 DEB",
        "group": "iridium-33-debris",
        "lat": 38.139083487902994,
        "lon": -120.39281231873699,
        "alt_km": 736.8979083986414,
        "timestamp": "2025-12-08T08:59:01.151162+00:00",
        "meta_object_name": "IRIDIUM 33 DEB",
        "meta_object_id": "1997-051L",
        "meta_epoch": "2025-12-07T17:21:12.573216",
        "meta_mean_motion": 14.43241483,
        "meta_eccentricity": 0.00120237,
        "meta_inclination": 86.4015,
        "meta_ra_of_asc_node": 62.7153,
        "meta_arg_of_pericenter": 161.443,
        "meta_mean_anomaly": 198.7212,
        "meta_ephemeris_type": 0,
        "meta_classification_type": "U",
        "meta_norad_cat_id": 33773,
        "meta_element_set_no": 999,
        "meta_rev_at_epoch": 88275,
        "meta_bstar": 0.00062122502,
        "meta_mean_motion_dot": 2.11e-05,
        "meta_mean_motion_ddot": 0,
        "tle_line1": "1 33773U 97051L   25341.72306219  .00002110  00000+0  62123-3 0  9990",
        "tle_line2": "2 33773  86.4015  62.7153 0012023 161.4430 198.7212 14.43241483882754"
      },
      "geometry": {
        "type": "Point",
        "coordinates": [
          -120.39281231873699,
          38.139083487902994
        ]
      }
    },
    {
      "type": "Feature",
      "properties": {
        "norad_id": 33775,
        "name": "IRIDIUM 33 DEB",
        "group": "iridium-33-debris",
        "lat": -73.09533028333107,
        "lon": -116.50596513710664,
        "alt_km": 760.282592180597,
        "timestamp": "2025-12-08T08:59:01.151178+00:00",
        "meta_object_name": "IRIDIUM 33 DEB",
        "meta_object_id": "1997-051N",
        "meta_epoch": "2025-12-07T22:38:03.370848",
        "meta_mean_motion": 14.41452411,
        "meta_eccentricity": 0.00137836,
        "meta_inclination": 86.3641,
        "meta_ra_of_asc_node": 51.6013,
        "meta_arg_of_pericenter": 169.5505,
        "meta_mean_anomaly": 7.4355,
        "meta_ephemeris_type": 0,
        "meta_classification_type": "U",
        "meta_norad_cat_id": 33775,
        "meta_element_set_no": 999,
        "meta_rev_at_epoch": 88071,
        "meta_bstar": 0.00051363714,
        "meta_mean_motion_dot": 1.687e-05,
        "meta_mean_motion_ddot": 0,
        "tle_line1": "1 33775U 97051N   25341.94309457  .00001687  00000+0  51364-3 0  9996",
        "tle_line2": "2 33775  86.3641  51.6013 0013783 169.5505   7.4355 14.41452411880719"
      },
      "geometry": {
        "type": "Point",
        "coordinates": [
          -116.50596513710664,
          -73.09533028333107
        ]
      }
    },
    {
      "type": "Feature",
      "properties": {
        "norad_id": 33776,
        "name": "IRIDIUM 33 DEB",
        "group": "iridium-33-debris",
        "lat": 6.244422625446724,
        "lon": -97.78545915605773,
        "alt_km": 758.194271011077,
        "timestamp": "2025-12-08T08:59:01.151191+00:00",
        "meta_object_name": "IRIDIUM 33 DEB",
        "meta_object_id": "1997-051P",
        "meta_epoch": "2025-12-07T19:21:28.874016",
        "meta_mean_motion": 14.38221316,
        "meta_eccentricity": 0.00137825,
        "meta_inclination": 86.4037,
        "meta_ra_of_asc_node": 82.8472,
        "meta_arg_of_pericenter": 207.1216,
        "meta_mean_anomaly": 268.948,
        "meta_ephemeris_type": 0,
        "meta_classification_type": "U",
        "meta_norad_cat_id": 33776,
        "meta_element_set_no": 999,
        "meta_rev_at_epoch": 88011,
        "meta_bstar": 0.00060401698,
        "meta_mean_motion_dot": 1.855e-05,
        "meta_mean_motion_ddot": 0,
        "tle_line1": "1 33776U 97051P   25341.80658419  .00001855  00000+0  60402-3 0  9997",
        "tle_line2": "2 33776  86.4037  82.8472 0013782 207.1216 268.9480 14.38221316880113"
      },
      "geometry": {
        "type": "Point",
        "coordinates": [
          -97.78545915605773,
          6.244422625446724
        ]
      }
    },
    {
      "type": "Feature",
      "properties": {
        "norad_id": 33777,
        "name": "IRIDIUM 33 DEB",
        "group": "iridium-33-debris",
        "lat": 48.81705535423951,
        "lon": 41.253478114992475,
        "alt_km": 705.9400187504598,
        "timestamp": "2025-12-08T08:59:01.151204+00:00",
        "meta_object_name": "IRIDIUM 33 DEB",
        "meta_object_id": "1997-051Q",
        "meta_epoch": "2025-12-07T21:12:36.232416",
        "meta_mean_motion": 14.55558752,
        "meta_eccentricity": 0.00051039,
        "meta_inclination": 86.3785,
        "meta_ra_of_asc_node": 37.3156,
        "meta_arg_of_pericenter": 272.0634,
        "meta_mean_anomaly": 87.9989,
        "meta_ephemeris_type": 0,
        "meta_classification_type": "U",
        "meta_norad_cat_id": 33777,
        "meta_element_set_no": 999,
        "meta_rev_at_epoch": 88463,
        "meta_bstar": 0.0012244585,
        "meta_mean_motion_dot": 5.356e-05,
        "meta_mean_motion_ddot": 0,
        "tle_line1": "1 33777U 97051Q   25341.88375269  .00005356  00000+0  12245-2 0  9996",
        "tle_line2": "2 33777  86.3785  37.3156 0005103 272.0634  87.9989 14.55558752884630"
      },
      "geometry": {
        "type": "Point",
        "coordinates": [
          41.253478114992475,
          48.81705535423951
        ]
      }
    },
    {
      "type": "Feature",
      "properties": {
        "norad_id": 33850,
        "name": "IRIDIUM 33 DEB",
        "group": "iridium-33-debris",
        "lat": -43.626235234915995,
        "lon": -144.44727145662787,
        "alt_km": 752.7310995368925,
        "timestamp": "2025-12-08T08:59:01.151217+00:00",
        "meta_object_name": "IRIDIUM 33 DEB",
        "meta_object_id": "1997-051T",
        "meta_epoch": "2025-12-07T22:30:46.056384",
        "meta_mean_motion": 14.42131597,
        "meta_eccentricity": 0.00117503,
        "meta_inclination": 86.3419,
        "meta_ra_of_asc_node": 32.2443,
        "meta_arg_of_pericenter": 175.9292,
        "meta_mean_anomaly": 304.0004,
        "meta_ephemeris_type": 0,
        "meta_classification_type": "U",
        "meta_norad_cat_id": 33850,
        "meta_element_set_no": 999,
        "meta_rev_at_epoch": 88083,
        "meta_bstar": 0.00051754302,
        "meta_mean_motion_dot": 1.722e-05,
        "meta_mean_motion_ddot": 0,
        "tle_line1": "1 33850U 97051T   25341.93803306  .00001722  00000+0  51754-3 0  9994",
        "tle_line2": "2 33850  86.3419  32.2443 0011750 175.9292 304.0004 14.42131597880834"
      },
      "geometry": {
        "type": "Point",
        "coordinates": [
          -144.44727145662787,
          -43.626235234915995
        ]
      }
    },
    {
      "type": "Feature",
      "properties": {
        "norad_id": 33853,
        "name": "IRIDIUM 33 DEB",
        "group": "iridium-33-debris",
        "lat": -21.194850903998944,
        "lon": 173.28095641028318,
        "alt_km": 800.5037910047376,
        "timestamp": "2025-12-08T08:59:01.151229+00:00",
        "meta_object_name": "IRIDIUM 33 DEB",
        "meta_object_id": "1997-051W",
        "meta_epoch": "2025-12-07T08:17:07.255968",
        "meta_mean_motion": 13.99011788,
        "meta_eccentricity": 0.0206843,
        "meta_inclination": 85.9996,
        "meta_ra_of_asc_node": 352.177,
        "meta_arg_of_pericenter": 252.5093,
        "meta_mean_anomaly": 170.527,
        "meta_ephemeris_type": 0,
        "meta_classification_type": "U",
        "meta_norad_cat_id": 33853,
        "meta_element_set_no": 999,
        "meta_rev_at_epoch": 85270,
        "meta_bstar": 0.0032855216,
        "meta_mean_motion_dot": 5.719e-05,
        "meta_mean_motion_ddot": 0,
        "tle_line1": "1 33853U 97051W   25341.34522287  .00005719  00000+0  32855-2 0  9998",
        "tle_line2": "2 33853  85.9996 352.1770 0206843 252.5093 170.5270 13.99011788852705"
      },
      "geometry": {
        "type": "Point",
        "coordinates": [
          173.28095641028318,
          -21.194850903998944
        ]
      }
    }
  ]
}